IRIDIUM 154             
1 43574U 18061F   26192.02266654  .00000175  00000+0  55431-4 0  9994
2 43574  86.3943  46.8374 0002311  90.0874 270.0586 14.34217446416820
IRIDIUM 163             
1 43575U 18061G   26192.07340728  .00000147  00000+0  45262-4 0  9995
2 43575  86.3938  46.7306 0002160  84.9908 275.1535 14.34217510416801
IRIDIUM 156             
1 43576U 18061H   26192.04803728  .00000135  00000+0  41300-4 0  9993
2 43576  86.3939  46.7485 0002057  90.6540 269.4892 14.34217783416794
IRIDIUM 164             
1 43577U 18061J   26192.02901192  .00000150  00000+0  46367-4 0  9991
2 43577  86.3940  46.7974 0002303  89.5209 270.6251 14.34217187416839
IRIDIUM 159             
1 43578U 18061K   26192.06706463  .00000044  00000+0  87594-5 0  9990
2 43578  86.3939  46.7179 0002163  85.2103 274.9340 14.34217261416801
IRIDIUM 180             
1 43922U 19002A   26191.36887782  .00000060  00000+0  14283-4 0  9997
2 43922  86.3985 343.9061 0002119  91.1495 268.9943 14.34217020392312
IRIDIUM 176             
1 43923U 19002B   26191.40403850  .00000494  00000+0  74525-4 0  9999
2 43923  86.6105 343.8314 0002346  89.2062 270.9424 14.72245231402664
IRIDIUM 168             
1 43924U 19002C   26191.36253025  .00000045  00000+0  89730-5 0  9999
2 43924  86.3988 343.9865 0002243  90.7210 269.4243 14.34217872392298
IRIDIUM 173             
1 43925U 19002D   26191.41961571 -.00000015  00000+0 -12535-4 0  9995
2 43925  86.3987 343.8507 0002192  91.6519 268.4928 14.34217678392287
IRIDIUM 169             
1 43926U 19002E   26191.97073234  .00000155  00000+0  44264-4 0  9994
2 43926  86.4218  15.2468 0001758 100.4406 259.6990 14.38613250393645
IRIDIUM 172             
1 43927U 19002F   26191.97142338  .00000121  00000+0  36228-4 0  9991
2 43927  86.3983 343.6281 0002184  90.0898 270.0548 14.34217585392370
IRIDIUM 175             
1 43928U 19002G   26191.63485933  .00000183  00000+0  47907-4 0  9990
2 43928  86.4514 280.7204 0005046 124.4714 235.6965 14.43625714402365
IRIDIUM 171             
1 43929U 19002H   26191.39424680  .00000088  00000+0  24441-4 0  9998
2 43929  86.3992 344.1779 0002189  95.3165 264.8281 14.34217468392285
IRIDIUM 170             
1 43930U 19002J   26191.95395435  .00000444  00000+0  66589-4 0  9992
2 43930  86.6106 343.6038 0002317  85.7639 274.3843 14.72246135402750
IRIDIUM 167             
1 43931U 19002K   26191.38790420  .00000111  00000+0  32721-4 0  9995
2 43931  86.3986 343.8945 0002222  99.6208 260.5239 14.34217642392285
IRIDIUM 181             
1 56726U 23068S   26191.12381287  .00000194  00000+0  51625-4 0  9992
2 56726  86.4478  47.1994 0002441  84.6564 275.4915 14.43310542165746
IRIDIUM 177             
1 56727U 23068T   26191.30904597  .00000703  00000+0  89433-4 0  9992
2 56727  86.1981 317.8128 0002146  92.8146 267.3320 14.80025290169780
IRIDIUM 174             
1 56728U 23068U   26191.80560062  .00000466  00000+0  70055-4 0  9999
2 56728  86.6114 343.8154 0002047  84.4121 275.7330 14.72254496169497
IRIDIUM 178             
1 56729U 23068V   26191.97413405  .00000212  00000+0  24561-4 0  9996
2 56729  86.6532  15.4174 0002311  89.9450 270.2036 14.80024760169889
IRIDIUM 179             
1 56730U 23068W   26191.96879860  .00000527  00000+0  66225-4 0  9990
2 56730  86.6765  24.4699 0002271  91.7636 268.3846 14.80032747169884
