OBJECT_NAME,OBJECT_ID,EPOCH,MEAN_MOTION,ECCENTRICITY,INCLINATION,RA_OF_ASC_NODE,ARG_OF_PERICENTER,MEAN_ANOMALY,EPHEMERIS_TYPE,CLASSIFICATION_TYPE,NORAD_CAT_ID,ELEMENT_SET_NO,REV_AT_EPOCH,BSTAR,MEAN_MOTION_DOT,MEAN_MOTION_DDOT
IRIDIUM 154,2018-061F,2026-07-11T00:32:38.389056,14.34217446,.0002311,86.3943,46.8374,90.0874,270.0586,0,U,43574,999,41682,.55431E-4,.175E-5,0
IRIDIUM 163,2018-061G,2026-07-11T01:45:42.388992,14.34217510,.000216,86.3938,46.7306,84.9908,275.1535,0,U,43575,999,41680,.45262E-4,.147E-5,0
IRIDIUM 156,2018-061H,2026-07-11T01:09:10.420992,14.34217783,.0002057,86.3939,46.7485,90.6540,269.4892,0,U,43576,999,41679,.413E-4,.135E-5,0
IRIDIUM 164,2018-061J,2026-07-11T00:41:46.629888,14.34217187,.0002303,86.3940,46.7974,89.5209,270.6251,0,U,43577,999,41683,.46367E-4,.15E-5,0
IRIDIUM 159,2018-061K,2026-07-11T01:36:34.384032,14.34217261,.0002163,86.3939,46.7179,85.2103,274.9340,0,U,43578,999,41680,.87594E-5,.44E-6,0
IRIDIUM 180,2019-002A,2026-07-10T08:51:11.043648,14.34217020,.00021197,86.3985,343.9061,91.1495,268.9943,0,U,43922,999,39231,.14282898E-4,.6E-6,0
IRIDIUM 176,2019-002B,2026-07-10T09:41:48.926400,14.72245231,.00023463,86.6105,343.8314,89.2062,270.9424,0,U,43923,999,40266,.74525413E-4,.494E-5,0
IRIDIUM 168,2019-002C,2026-07-10T08:42:02.613600,14.34217872,.00022436,86.3988,343.9865,90.7210,269.4243,0,U,43924,999,39229,.8973003E-5,.45E-6,0
IRIDIUM 173,2019-002D,2026-07-10T10:04:14.797344,14.34217678,.00021921,86.3987,343.8507,91.6519,268.4928,0,U,43925,999,39228,-.12534919E-4,-.15E-6,0
IRIDIUM 169,2019-002E,2026-07-10T23:17:51.274176,14.38613250,.0001758,86.4218,15.2468,100.4406,259.6990,0,U,43926,999,39364,.44264E-4,.155E-5,0
IRIDIUM 172,2019-002F,2026-07-10T23:18:50.980032,14.34217585,.0002184,86.3983,343.6281,90.0898,270.0548,0,U,43927,999,39237,.36228E-4,.121E-5,0
IRIDIUM 175,2019-002G,2026-07-10T15:14:11.846112,14.43625714,.0005046,86.4514,280.7204,124.4714,235.6965,0,U,43928,999,40236,.47907E-4,.183E-5,0
IRIDIUM 171,2019-002H,2026-07-10T09:27:42.923520,14.34217468,.00021898,86.3992,344.1779,95.3165,264.8281,0,U,43929,999,39228,.24440777E-4,.88E-6,0
IRIDIUM 170,2019-002J,2026-07-10T22:53:41.655840,14.72246135,.0002317,86.6106,343.6038,85.7639,274.3843,0,U,43930,999,40275,.66589E-4,.444E-5,0
IRIDIUM 167,2019-002K,2026-07-10T09:18:34.922880,14.34217642,.00022224,86.3986,343.8945,99.6208,260.5239,0,U,43931,999,39228,.32720748E-4,.111E-5,0
IRIDIUM 181,2023-068S,2026-07-10T02:58:17.431968,14.43310542,.00024415,86.4478,47.1994,84.6564,275.4915,0,U,56726,999,16574,.51624538E-4,.194E-5,0
IRIDIUM 177,2023-068T,2026-07-10T07:25:01.571808,14.80025290,.0002146,86.1981,317.8128,92.8146,267.3320,0,U,56727,999,16978,.89432842E-4,.703E-5,0
IRIDIUM 174,2023-068U,2026-07-10T19:20:03.893568,14.72254496,.0002047,86.6114,343.8154,84.4121,275.7330,0,U,56728,999,16949,.70055E-4,.466E-5,0
IRIDIUM 178,2023-068V,2026-07-10T23:22:45.181920,14.80024760,.0002311,86.6532,15.4174,89.9450,270.2036,0,U,56729,999,16988,.24561E-4,.212E-5,0
IRIDIUM 179,2023-068W,2026-07-10T23:15:04.199040,14.80032747,.0002271,86.6765,24.4699,91.7636,268.3846,0,U,56730,999,16988,.66225E-4,.527E-5,0
